H1 CPF  1  HTS 2022 10 29 12  8021 larets           NONE
H2  0304206 5557    27944 2022 10 29  0  0  0 2022 11 03  0  0  0   180 1 1  0 0 0
H5  0.0560 
H9 
10 0 59885  45000.00000  0     464569.647    1335162.708    6912752.317
10 0 59885  45180.00000  0    1690513.461    1842157.442    6596983.174
10 0 59885  45360.00000  0    2867043.118    2250673.588    6039757.487
10 0 59885  45540.00000  0    3948531.277    2547669.814    5261218.390
10 0 59885  45720.00000  0    4892428.831    2725282.227    4289658.824
10 0 59885  45900.00000  0    5660983.368    2781035.728    3160543.526
10 0 59885  46080.00000  0    6222817.411    2717818.725    1915236.990
10 0 59885  46260.00000  0    6554274.786    2543618.352     599479.770
10 0 59885  46440.00000  0    6640471.052    2271026.829    -738332.897
10 0 59885  46620.00000  0    6475974.011    1916538.362   -2048996.347
10 0 59885  46800.00000  0    6065084.693    1499677.819   -3284369.760
10 0 59885  46980.00000  0    5421705.714    1042006.796   -4399200.930
10 0 59885  47160.00000  0    4568799.336     566061.320   -5352811.108
10 0 59885  47340.00000  0    3537480.690      94283.696   -6110565.702
10 0 59885  47520.00000  0    2365805.804    -351998.550   -6645087.576
10 0 59885  47700.00000  0    1097311.928    -753503.187   -6937182.082
10 0 59885  47880.00000  0    -220622.016   -1093797.795   -6976460.774
10 0 59885  48060.00000  0   -1538540.337   -1359948.849   -6761660.668
10 0 59885  48240.00000  0   -2806741.830   -1542998.425   -6300662.500
10 0 59885  48420.00000  0   -3977124.310   -1638256.153   -5610209.961
10 0 59885  48600.00000  0   -5004990.553   -1645400.976   -4715342.473
10 0 59885  48780.00000  0   -5850764.779   -1568389.613   -3648539.898
10 0 59885  48960.00000  0   -6481549.747   -1415173.346   -2448592.582
10 0 59885  49140.00000  0   -6872457.557   -1197232.663   -1159221.375
10 0 59885  49320.00000  0   -7007645.866    -928948.141     172509.600
10 0 59885  49500.00000  0   -6881001.394    -626834.069    1497930.030
10 0 59885  49680.00000  0   -6496427.926    -308675.221    2768574.780
10 0 59885  49860.00000  0   -5867722.983       7387.525    3937990.889
10 0 59885  50040.00000  0   -5018047.653     303777.018    4963459.676
10 0 59885  50220.00000  0   -3979022.130     564355.414    5807556.943
10 0 59885  50400.00000  0   -2789502.632     775214.898    6439496.784
10 0 59885  50580.00000  0   -1494094.080     925346.046    6836223.229
10 0 59885  50760.00000  0    -141459.529    1007158.692    6983217.870
10 0 59885  50940.00000  0    1217504.732    1016834.962    6875005.675
10 0 59885  51120.00000  0    2531569.099     954502.128    6515359.273
10 0 59885  51300.00000  0    3751093.025     824219.097    5917195.861
10 0 59885  51480.00000  0    4829912.230     633774.669    5102160.551
10 0 59885  51660.00000  0    5727122.785     394302.323    4099897.601
10 0 59885  51840.00000  0    6408699.076     119724.588    2947018.700
10 0 59885  52020.00000  0    6848866.466    -173948.186    1685781.692
10 0 59885  52200.00000  0    7031154.313    -469438.759     362528.029
10 0 59885  52380.00000  0    6949073.724    -749098.717    -974064.262
10 0 59885  52560.00000  0    6606371.729    -995833.585   -2274838.725
10 0 59885  52740.00000  0    6016843.951   -1194006.112   -3492036.166
10 0 59885  52920.00000  0    5203721.779   -1330267.864   -4581097.612
10 0 59885  53100.00000  0    4198675.854   -1394273.934   -5502313.445
10 0 59885  53280.00000  0    3040498.127   -1379248.509   -6222254.023
10 0 59885  53460.00000  0    1773533.604   -1282377.934   -6714933.738
10 0 59885  53640.00000  0     445941.561   -1105013.609   -6962683.357
10 0 59885  53820.00000  0    -892144.761    -852684.955   -6956719.452
10 0 59885  54000.00000  0   -2190494.756    -534922.608   -6697410.216
10 0 59885  54180.00000  0   -3400637.604    -164897.604   -6194238.978
10 0 59885  54360.00000  0   -4477642.349     241110.749   -5465471.835
10 0 59885  54540.00000  0   -5381778.002     664401.423   -4537538.142
10 0 59885  54720.00000  0   -6079998.502    1084670.128   -3444126.410
10 0 59885  54900.00000  0   -6547195.981    1480933.070   -2225008.890
10 0 59885  55080.00000  0   -6767160.272    1832513.667    -924621.749
10 0 59885  55260.00000  0   -6733195.979    2120046.516     409554.234
10 0 59885  55440.00000  0   -6448353.760    2326445.781    1728751.808
10 0 59885  55620.00000  0   -5925260.958    2437790.618    2984733.136
10 0 59885  55800.00000  0   -5185559.273    2444079.816    4131587.072
10 0 59885  55980.00000  0   -4258978.308    2339812.989    5127426.520
10 0 59885  56160.00000  0   -3182100.262    2124373.710    5935912.736
10 0 59885  56340.00000  0   -1996881.403    1802200.929    6527559.901
10 0 59885  56520.00000  0    -748990.502    1382739.157    6880778.364
10 0 59885  56700.00000  0     513958.786     880169.787    6982624.840
10 0 59885  56880.00000  0    1744213.524     312935.929    6829255.931
10 0 59885  57060.00000  0    2895673.988    -296925.067    6426079.838
10 0 59885  57240.00000  0    3925620.370    -924624.808    5787600.379
10 0 59885  57420.00000  0    4796320.161   -1543618.000    4936945.127
10 0 59885  57600.00000  0    5476455.509   -2126714.668    3905080.696
10 0 59885  57780.00000  0    5942316.889   -2647266.861    2729726.678
10 0 59885  57960.00000  0    6178701.087   -3080379.836    1453988.015
10 0 59885  58140.00000  0    6179463.333   -3404086.211     124755.277
10 0 59885  58320.00000  0    5947689.985   -3600421.272   -1209068.741
10 0 59885  58500.00000  0    5495473.645   -3656337.095   -2498437.256
10 0 59885  58680.00000  0    4843299.895   -3564403.338   -3696028.949
10 0 59885  58860.00000  0    4019087.354   -3323262.208   -4758029.659
10 0 59885  59040.00000  0    3056935.678   -2937815.928   -5645748.441
10 0 59885  59220.00000  0    1995656.447   -2419142.257   -6327000.565
10 0 59885  59400.00000  0     877169.427   -1784155.971   -6777221.390
10 0 59885  59580.00000  0    -255172.425   -1055028.583   -6980289.953
10 0 59885  59760.00000  0   -1358258.706    -258396.197   -6929041.315
10 0 59885  59940.00000  0   -2390839.798     575612.667   -6625476.322
10 0 59885  60120.00000  0   -3315041.942    1414502.022   -6080671.243
10 0 59885  60300.00000  0   -4097735.297    2224652.191   -5314396.219
10 0 59885  60480.00000  0   -4711723.976    2972648.207   -4354446.059
10 0 59885  60660.00000  0   -5136712.488    3626648.250   -3235681.940
10 0 59885  60840.00000  0   -5360007.054    4157735.328   -1998809.579
10 0 59885  61020.00000  0   -5376920.933    4541195.128    -688922.810
10 0 59885  61200.00000  0   -5190858.893    4757655.440     646141.976
10 0 59885  61380.00000  0   -4813067.547    4794026.890    1957579.232
10 0 59885  61560.00000  0   -4262057.095    4644187.794    3197436.545
10 0 59885  61740.00000  0   -3562724.465    4309380.778    4320398.505
10 0 59885  61920.00000  0   -2745230.031    3798302.881    5285456.429
10 0 59885  62100.00000  0   -1843686.627    3126887.265    6057400.605
10 0 59885  62280.00000  0    -894722.701    2317789.045    6608079.759
10 0 59885  62460.00000  0      64010.335    1399601.745    6917388.423
10 0 59885  62640.00000  0     995323.351     405840.892    6973968.060
10 0 59885  62820.00000  0    1863921.954    -626272.492    6775610.231
10 0 59885  63000.00000  0    2637738.235   -1657192.475    6329355.417
10 0 59885  63180.00000  0    3289122.185   -2646554.430    5651281.022
10 0 59885  63360.00000  0    3795854.481   -3554759.171    4765973.727
10 0 59885  63540.00000  0    4141940.484   -4344578.818    3705689.631
10 0 59885  63720.00000  0    4318152.503   -4982720.971    2509214.386
10 0 59885  63900.00000  0    4322289.974   -5441277.801    1220450.694
10 0 59885  64080.00000  0    4159138.133   -5698982.837    -113219.692
10 0 59885  64260.00000  0    3840122.963   -5742205.479   -1442729.778
10 0 59885  64440.00000  0    3382678.578   -5565629.926   -2719200.713
10 0 59885  64620.00000  0    2809357.672   -5172574.844   -3895803.417
10 0 59885  64800.00000  0    2146736.487   -4574941.241   -4929520.171
10 0 59885  64980.00000  0    1424176.089   -3792796.975   -5782723.640
10 0 59885  65160.00000  0     672514.778   -2853632.650   -6424513.733
10 0 59885  65340.00000  0     -77248.933   -1791336.395   -6831779.597
10 0 59885  65520.00000  0    -795225.324    -644931.605   -6989964.572
10 0 59885  65700.00000  0   -1453804.134     542869.076   -6893525.906
10 0 59885  65880.00000  0   -2028694.549    1727241.630   -6546090.590
10 0 59885  66060.00000  0   -2499802.557    2862914.686   -5960313.964
10 0 59885  66240.00000  0   -2851924.044    3905875.308   -5157448.008
10 0 59885  66420.00000  0   -3075235.208    4815068.047   -4166619.324
10 0 59885  66600.00000  0   -3165561.343    5554024.464   -3023820.554
10 0 59885  66780.00000  0   -3124407.884    6092351.305   -1770642.238
10 0 59885  66960.00000  0   -2958754.340    6407019.268    -452781.818
10 0 59885  67140.00000  0   -2680614.202    6483379.913     881627.009
10 0 59885  67320.00000  0   -2306383.279    6315859.583    2183799.696
10 0 59885  67500.00000  0   -1855995.200    5908274.327    3406127.958
10 0 59885  67680.00000  0   -1351937.655    5273752.394    4503946.865
10 0 59885  67860.00000  0    -818185.151    4434282.089    5437176.014
10 0 59885  68040.00000  0    -279095.110    3419906.233    6171772.177
10 0 59885  68220.00000  0     241674.145    2267608.290    6680941.544
10 0 59885  68400.00000  0     722177.369    1019939.933    6946081.232
10 0 59885  68580.00000  0    1143090.620    -276555.303    6957429.694
10 0 59885  68760.00000  0    1488480.537   -1573066.828    6714416.611
10 0 59885  68940.00000  0    1746409.937   -2820342.805    6225708.236
10 0 59885  69120.00000  0    1909359.751   -3970562.174    5508938.199
10 0 59885  69300.00000  0    1974451.033   -4979188.409    4590119.996
99
